[
  {
    "area": "Abasana",
    "pincode": "382120",
    "state": "Gujarat",
    "district": "Ahmedabad"
  },
  {
    "area": "Adroda",
    "pincode": "382220",
    "state": "Gujarat",
    "district": "Ahmedabad"
  },
  {
    "area": "Adval",
    "pincode": "382460",
    "state": "Gujarat",
    "district": "Ahmedabad"
  },
  {
    "area": "Ahmedabad.",
    "pincode": "380001",
    "state": "Gujarat",
    "district": "Ahmedabad"
  },
  {
    "area": "Akru",
    "pincode": "382250",
    "state": "Gujarat",
    "district": "Ahmedabad"
  },
  {
    "area": "Alampur",
    "pincode": "363610",
    "state": "Gujarat",
    "district": "Ahmedabad"
  },
  {
    "area": "Alau",
    "pincode": "382255",
    "state": "Gujarat",
    "district": "Ahmedabad"
  },
  {
    "area": "Ambaliara",
    "pincode": "387810",
    "state": "Gujarat",
    "district": "Ahmedabad"
  },
  {
    "area": "Ambareli",
    "pincode": "387810",
    "state": "Gujarat",
    "district": "Ahmedabad"
  },
  {
    "area": "Ambawadi",
    "pincode": "380006",
    "state": "Gujarat",
    "district": "Ahmedabad"
  },
  {
    "area": "Ambawadi Vistar",
    "pincode": "380015",
    "state": "Gujarat",
    "district": "Ahmedabad"
  },
  {
    "area": "Ambli",
    "pincode": "382463",
    "state": "Gujarat",
    "district": "Ahmedabad"
  },
  {
    "area": "Amraiwadi",
    "pincode": "380026",
    "state": "Gujarat",
    "district": "Ahmedabad"
  },
  {
    "area": "Anandnagar",
    "pincode": "380007",
    "state": "Gujarat",
    "district": "Ahmedabad"
  },
  {
    "area": "Andej",
    "pincode": "382115",
    "state": "Gujarat",
    "district": "Ahmedabad"
  },
  {
    "area": "Aniali ( k )",
    "pincode": "363610",
    "state": "Gujarat",
    "district": "Ahmedabad"
  },
  {
    "area": "Aniali Bhimji",
    "pincode": "382250",
    "state": "Gujarat",
    "district": "Ahmedabad"
  },
  {
    "area": "Arnej",
    "pincode": "382230",
    "state": "Gujarat",
    "district": "Ahmedabad"
  },
  {
    "area": "Asalgam",
    "pincode": "382150",
    "state": "Gujarat",
    "district": "Ahmedabad"
  },
  {
    "area": "Asarwa Chakla",
    "pincode": "380016",
    "state": "Gujarat",
    "district": "Ahmedabad"
  },
  {
    "area": "Asarwa Ext south",
    "pincode": "380024",
    "state": "Gujarat",
    "district": "Ahmedabad"
  },
  {
    "area": "Ashoknagar",
    "pincode": "382140",
    "state": "Gujarat",
    "district": "Ahmedabad"
  },
  {
    "area": "Ashram Road",
    "pincode": "380009",
    "state": "Gujarat",
    "district": "Ahmedabad"
  },
  {
    "area": "Aslali",
    "pincode": "382427",
    "state": "Gujarat",
    "district": "Ahmedabad"
  },
  {
    "area": "Azad Society",
    "pincode": "380015",
    "state": "Gujarat",
    "district": "Ahmedabad"
  },
  {
    "area": "Badanpur",
    "pincode": "382465",
    "state": "Gujarat",
    "district": "Ahmedabad"
  },
  {
    "area": "Badarkha",
    "pincode": "382276",
    "state": "Gujarat",
    "district": "Ahmedabad"
  },
  {
    "area": "Bagad",
    "pincode": "382255",
    "state": "Gujarat",
    "district": "Ahmedabad"
  },
  {
    "area": "Bagodara",
    "pincode": "382230",
    "state": "Gujarat",
    "district": "Ahmedabad"
  },
  {
    "area": "Bajarda",
    "pincode": "382460",
    "state": "Gujarat",
    "district": "Ahmedabad"
  },
  {
    "area": "Bakrana",
    "pincode": "382170",
    "state": "Gujarat",
    "district": "Ahmedabad"
  },
  {
    "area": "Bakrol",
    "pincode": "382430",
    "state": "Gujarat",
    "district": "Ahmedabad"
  },
  {
    "area": "Baldana",
    "pincode": "382240",
    "state": "Gujarat",
    "district": "Ahmedabad"
  },
  {
    "area": "Balsasan",
    "pincode": "382145",
    "state": "Gujarat",
    "district": "Ahmedabad"
  },
  {
    "area": "Bamroli",
    "pincode": "382145",
    "state": "Gujarat",
    "district": "Ahmedabad"
  },
  {
    "area": "Bamsara",
    "pincode": "382240",
    "state": "Gujarat",
    "district": "Ahmedabad"
  },
  {
    "area": "Bapunagar",
    "pincode": "380024",
    "state": "Gujarat",
    "district": "Ahmedabad"
  },
  {
    "area": "Bareja",
    "pincode": "382425",
    "state": "Gujarat",
    "district": "Ahmedabad"
  },
  {
    "area": "Barwala Ghelasha",
    "pincode": "382450",
    "state": "Gujarat",
    "district": "Ahmedabad"
  },
  {
    "area": "Bavaliary",
    "pincode": "382455",
    "state": "Gujarat",
    "district": "Ahmedabad"
  },
  {
    "area": "Bavla",
    "pincode": "382220",
    "state": "Gujarat",
    "district": "Ahmedabad"
  },
  {
    "area": "Bavla Market yard",
    "pincode": "382220",
    "state": "Gujarat",
    "district": "Ahmedabad"
  },
  {
    "area": "Behrampura",
    "pincode": "380022",
    "state": "Gujarat",
    "district": "Ahmedabad"
  },
  {
    "area": "Bela",
    "pincode": "382450",
    "state": "Gujarat",
    "district": "Ahmedabad"
  },
  {
    "area": "Bhadaj",
    "pincode": "380060",
    "state": "Gujarat",
    "district": "Ahmedabad"
  },
  {
    "area": "Bhadana",
    "pincode": "382140",
    "state": "Gujarat",
    "district": "Ahmedabad"
  },
  {
    "area": "Bhadiad",
    "pincode": "382463",
    "state": "Gujarat",
    "district": "Ahmedabad"
  },
  {
    "area": "Bhairavnath Road",
    "pincode": "380028",
    "state": "Gujarat",
    "district": "Ahmedabad"
  },
  {
    "area": "Bhangadh",
    "pincode": "382455",
    "state": "Gujarat",
    "district": "Ahmedabad"
  },
  {
    "area": "Bhankoda",
    "pincode": "382140",
    "state": "Gujarat",
    "district": "Ahmedabad"
  },
  {
    "area": "Bhat",
    "pincode": "382210",
    "state": "Gujarat",
    "district": "Ahmedabad"
  },
  {
    "area": "Bhavda",
    "pincode": "382433",
    "state": "Gujarat",
    "district": "Ahmedabad"
  },
  {
    "area": "Bhayla",
    "pincode": "382220",
    "state": "Gujarat",
    "district": "Ahmedabad"
  },
  {
    "area": "Bhojwa",
    "pincode": "382150",
    "state": "Gujarat",
    "district": "Ahmedabad"
  },
  {
    "area": "Bholad",
    "pincode": "382230",
    "state": "Gujarat",
    "district": "Ahmedabad"
  },
  {
    "area": "Bhoyani",
    "pincode": "382145",
    "state": "Gujarat",
    "district": "Ahmedabad"
  },
  {
    "area": "Bhurkhi",
    "pincode": "382230",
    "state": "Gujarat",
    "district": "Ahmedabad"
  },
  {
    "area": "Bhuvaldi",
    "pincode": "382430",
    "state": "Gujarat",
    "district": "Ahmedabad"
  },
  {
    "area": "Bilasia",
    "pincode": "382330",
    "state": "Gujarat",
    "district": "Ahmedabad"
  },
  {
    "area": "Bodakdev",
    "pincode": "380054",
    "state": "Gujarat",
    "district": "Ahmedabad"
  },
  {
    "area": "Bodia",
    "pincode": "363610",
    "state": "Gujarat",
    "district": "Ahmedabad"
  },
  {
    "area": "Bol",
    "pincode": "382170",
    "state": "Gujarat",
    "district": "Ahmedabad"
  },
  {
    "area": "Bopal",
    "pincode": "380058",
    "state": "Gujarat",
    "district": "Ahmedabad"
  },
  {
    "area": "Bordibazar Viramgam",
    "pincode": "382150",
    "state": "Gujarat",
    "district": "Ahmedabad"
  },
  {
    "area": "Calico Mills",
    "pincode": "380022",
    "state": "Gujarat",
    "district": "Ahmedabad"
  },
  {
    "area": "Cantonment",
    "pincode": "380004",
    "state": "Gujarat",
    "district": "Ahmedabad"
  },
  {
    "area": "Chaloda",
    "pincode": "382260",
    "state": "Gujarat",
    "district": "Ahmedabad"
  },
  {
    "area": "Chandarva",
    "pincode": "382255",
    "state": "Gujarat",
    "district": "Ahmedabad"
  },
  {
    "area": "Chandial",
    "pincode": "382433",
    "state": "Gujarat",
    "district": "Ahmedabad"
  },
  {
    "area": "Chandisar",
    "pincode": "382260",
    "state": "Gujarat",
    "district": "Ahmedabad"
  },
  {
    "area": "Chandlodia",
    "pincode": "382481",
    "state": "Gujarat",
    "district": "Ahmedabad"
  },
  {
    "area": "Chandranagar",
    "pincode": "382150",
    "state": "Gujarat",
    "district": "Ahmedabad"
  },
  {
    "area": "Changodar",
    "pincode": "382213",
    "state": "Gujarat",
    "district": "Ahmedabad"
  },
  {
    "area": "Charanki",
    "pincode": "382450",
    "state": "Gujarat",
    "district": "Ahmedabad"
  },
  {
    "area": "Charel",
    "pincode": "382110",
    "state": "Gujarat",
    "district": "Ahmedabad"
  },
  {
    "area": "Charol",
    "pincode": "382120",
    "state": "Gujarat",
    "district": "Ahmedabad"
  },
  {
    "area": "Chaulaj",
    "pincode": "382433",
    "state": "Gujarat",
    "district": "Ahmedabad"
  },
  {
    "area": "Chekhla",
    "pincode": "382115",
    "state": "Gujarat",
    "district": "Ahmedabad"
  },
  {
    "area": "Chhabasar",
    "pincode": "382220",
    "state": "Gujarat",
    "district": "Ahmedabad"
  },
  {
    "area": "Chhaniar",
    "pincode": "382140",
    "state": "Gujarat",
    "district": "Ahmedabad"
  },
  {
    "area": "Chharodi",
    "pincode": "382170",
    "state": "Gujarat",
    "district": "Ahmedabad"
  },
  {
    "area": "Chhasiana",
    "pincode": "382460",
    "state": "Gujarat",
    "district": "Ahmedabad"
  },
  {
    "area": "Chiada",
    "pincode": "382220",
    "state": "Gujarat",
    "district": "Ahmedabad"
  },
  {
    "area": "Chokdi",
    "pincode": "382250",
    "state": "Gujarat",
    "district": "Ahmedabad"
  },
  {
    "area": "Chuval Dangarva",
    "pincode": "382145",
    "state": "Gujarat",
    "district": "Ahmedabad"
  },
  {
    "area": "Civil Hospital",
    "pincode": "380016",
    "state": "Gujarat",
    "district": "Ahmedabad"
  },
  {
    "area": "Ctm Char rasta",
    "pincode": "380026",
    "state": "Gujarat",
    "district": "Ahmedabad"
  },
  {
    "area": "D Cabin",
    "pincode": "380019",
    "state": "Gujarat",
    "district": "Ahmedabad"
  },
  {
    "area": "Dabhsar",
    "pincode": "382120",
    "state": "Gujarat",
    "district": "Ahmedabad"
  },
  {
    "area": "Dadhana",
    "pincode": "382120",
    "state": "Gujarat",
    "district": "Ahmedabad"
  },
  {
    "area": "Daduka",
    "pincode": "382110",
    "state": "Gujarat",
    "district": "Ahmedabad"
  },
  {
    "area": "Dadusar",
    "pincode": "387810",
    "state": "Gujarat",
    "district": "Ahmedabad"
  },
  {
    "area": "Dalod",
    "pincode": "382130",
    "state": "Gujarat",
    "district": "Ahmedabad"
  },
  {
    "area": "Daran",
    "pincode": "382220",
    "state": "Gujarat",
    "district": "Ahmedabad"
  },
  {
    "area": "Dariapur",
    "pincode": "380001",
    "state": "Gujarat",
    "district": "Ahmedabad"
  },
  {
    "area": "Daslana",
    "pincode": "382150",
    "state": "Gujarat",
    "district": "Ahmedabad"
  },
  {
    "area": "Daxini Society",
    "pincode": "380008",
    "state": "Gujarat",
    "district": "Ahmedabad"
  },
  {
    "area": "Dehgamda",
    "pincode": "382220",
    "state": "Gujarat",
    "district": "Ahmedabad"
  },
  {
    "area": "Dekawada",
    "pincode": "382120",
    "state": "Gujarat",
    "district": "Ahmedabad"
  },
  {
    "area": "Delhi Gate",
    "pincode": "380004",
    "state": "Gujarat",
    "district": "Ahmedabad"
  },
  {
    "area": "Deo Dholera",
    "pincode": "382240",
    "state": "Gujarat",
    "district": "Ahmedabad"
  },
  {
    "area": "Detroj",
    "pincode": "382120",
    "state": "Gujarat",
    "district": "Ahmedabad"
  },
  {
    "area": "Devaliya",
    "pincode": "363610",
    "state": "Gujarat",
    "district": "Ahmedabad"
  },
  {
    "area": "Devpura",
    "pincode": "382140",
    "state": "Gujarat",
    "district": "Ahmedabad"
  },
  {
    "area": "Devtimoti",
    "pincode": "382213",
    "state": "Gujarat",
    "district": "Ahmedabad"
  },
  {
    "area": "Dhakdi",
    "pincode": "382150",
    "state": "Gujarat",
    "district": "Ahmedabad"
  },
  {
    "area": "Dhamatvan",
    "pincode": "382435",
    "state": "Gujarat",
    "district": "Ahmedabad"
  },
  {
    "area": "Dhanala",
    "pincode": "382465",
    "state": "Gujarat",
    "district": "Ahmedabad"
  },
  {
    "area": "Dhandhuka",
    "pincode": "382460",
    "state": "Gujarat",
    "district": "Ahmedabad"
  },
  {
    "area": "Dhanwada",
    "pincode": "382220",
    "state": "Gujarat",
    "district": "Ahmedabad"
  },
  {
    "area": "Dharpipla",
    "pincode": "363610",
    "state": "Gujarat",
    "district": "Ahmedabad"
  },
  {
    "area": "Dhedasana",
    "pincode": "382130",
    "state": "Gujarat",
    "district": "Ahmedabad"
  },
  {
    "area": "Dhingada",
    "pincode": "382230",
    "state": "Gujarat",
    "district": "Ahmedabad"
  },
  {
    "area": "Dholera",
    "pincode": "382455",
    "state": "Gujarat",
    "district": "Ahmedabad"
  },
  {
    "area": "Dholi",
    "pincode": "382240",
    "state": "Gujarat",
    "district": "Ahmedabad"
  },
  {
    "area": "Dholka",
    "pincode": "387810",
    "state": "Gujarat",
    "district": "Ahmedabad"
  },
  {
    "area": "Digvijaynagar",
    "pincode": "382470",
    "state": "Gujarat",
    "district": "Ahmedabad"
  },
  {
    "area": "District Court",
    "pincode": "380001",
    "state": "Gujarat",
    "district": "Ahmedabad"
  },
  {
    "area": "Dodar",
    "pincode": "382170",
    "state": "Gujarat",
    "district": "Ahmedabad"
  },
  {
    "area": "Dudheshwar Tavdipura",
    "pincode": "380004",
    "state": "Gujarat",
    "district": "Ahmedabad"
  },
  {
    "area": "Dumana",
    "pincode": "382150",
    "state": "Gujarat",
    "district": "Ahmedabad"
  },
  {
    "area": "Durgi",
    "pincode": "382230",
    "state": "Gujarat",
    "district": "Ahmedabad"
  },
  {
    "area": "Ellisbridge",
    "pincode": "380006",
    "state": "Gujarat",
    "district": "Ahmedabad"
  },
  {
    "area": "Endla",
    "pincode": "382130",
    "state": "Gujarat",
    "district": "Ahmedabad"
  },
  {
    "area": "Fangadi",
    "pincode": "382110",
    "state": "Gujarat",
    "district": "Ahmedabad"
  },
  {
    "area": "Fatepur",
    "pincode": "382465",
    "state": "Gujarat",
    "district": "Ahmedabad"
  },
  {
    "area": "Fatewadi",
    "pincode": "382210",
    "state": "Gujarat",
    "district": "Ahmedabad"
  },
  {
    "area": "Fedra",
    "pincode": "382465",
    "state": "Gujarat",
    "district": "Ahmedabad"
  },
  {
    "area": "Galsana",
    "pincode": "363610",
    "state": "Gujarat",
    "district": "Ahmedabad"
  },
  {
    "area": "Gamanpura",
    "pincode": "382120",
    "state": "Gujarat",
    "district": "Ahmedabad"
  },
  {
    "area": "Gamdi",
    "pincode": "382435",
    "state": "Gujarat",
    "district": "Ahmedabad"
  },
  {
    "area": "Gamph",
    "pincode": "382465",
    "state": "Gujarat",
    "district": "Ahmedabad"
  },
  {
    "area": "Gandhi Ashram",
    "pincode": "380027",
    "state": "Gujarat",
    "district": "Ahmedabad"
  },
  {
    "area": "Gandhi Road",
    "pincode": "380001",
    "state": "Gujarat",
    "district": "Ahmedabad"
  },
  {
    "area": "Gangad",
    "pincode": "382240",
    "state": "Gujarat",
    "district": "Ahmedabad"
  },
  {
    "area": "Ganol",
    "pincode": "382265",
    "state": "Gujarat",
    "district": "Ahmedabad"
  },
  {
    "area": "Garodia",
    "pincode": "382115",
    "state": "Gujarat",
    "district": "Ahmedabad"
  },
  {
    "area": "Gatrad",
    "pincode": "382449",
    "state": "Gujarat",
    "district": "Ahmedabad"
  },
  {
    "area": "Geratpur",
    "pincode": "382435",
    "state": "Gujarat",
    "district": "Ahmedabad"
  },
  {
    "area": "Ghatisana",
    "pincode": "382140",
    "state": "Gujarat",
    "district": "Ahmedabad"
  },
  {
    "area": "Ghatlodia",
    "pincode": "380061",
    "state": "Gujarat",
    "district": "Ahmedabad"
  },
  {
    "area": "Gheekanta Road",
    "pincode": "380001",
    "state": "Gujarat",
    "district": "Ahmedabad"
  },
  {
    "area": "Ghoda",
    "pincode": "382150",
    "state": "Gujarat",
    "district": "Ahmedabad"
  },
  {
    "area": "Ghodasar",
    "pincode": "380050",
    "state": "Gujarat",
    "district": "Ahmedabad"
  },
  {
    "area": "Ghuma",
    "pincode": "380058",
    "state": "Gujarat",
    "district": "Ahmedabad"
  },
  {
    "area": "Girdharnagar",
    "pincode": "380004",
    "state": "Gujarat",
    "district": "Ahmedabad"
  },
  {
    "area": "Girmatha",
    "pincode": "382425",
    "state": "Gujarat",
    "district": "Ahmedabad"
  },
  {
    "area": "Gita Mandir road",
    "pincode": "380022",
    "state": "Gujarat",
    "district": "Ahmedabad"
  },
  {
    "area": "Godhavata",
    "pincode": "382255",
    "state": "Gujarat",
    "district": "Ahmedabad"
  },
  {
    "area": "Godhavi",
    "pincode": "382115",
    "state": "Gujarat",
    "district": "Ahmedabad"
  },
  {
    "area": "Gogla",
    "pincode": "382463",
    "state": "Gujarat",
    "district": "Ahmedabad"
  },
  {
    "area": "Gomtipur",
    "pincode": "380021",
    "state": "Gujarat",
    "district": "Ahmedabad"
  },
  {
    "area": "Goraiya",
    "pincode": "382150",
    "state": "Gujarat",
    "district": "Ahmedabad"
  },
  {
    "area": "Goraj",
    "pincode": "382110",
    "state": "Gujarat",
    "district": "Ahmedabad"
  },
  {
    "area": "Gorasu",
    "pincode": "382463",
    "state": "Gujarat",
    "district": "Ahmedabad"
  },
  {
    "area": "Gota",
    "pincode": "382481",
    "state": "Gujarat",
    "district": "Ahmedabad"
  },
  {
    "area": "Gujarat High court",
    "pincode": "380060",
    "state": "Gujarat",
    "district": "Ahmedabad"
  },
  {
    "area": "Gujarat University",
    "pincode": "380009",
    "state": "Gujarat",
    "district": "Ahmedabad"
  },
  {
    "area": "Gunda",
    "pincode": "382255",
    "state": "Gujarat",
    "district": "Ahmedabad"
  },
  {
    "area": "Gundi Sarvodaya ashram",
    "pincode": "382230",
    "state": "Gujarat",
    "district": "Ahmedabad"
  },
  {
    "area": "Gunjala",
    "pincode": "382120",
    "state": "Gujarat",
    "district": "Ahmedabad"
  },
  {
    "area": "Gunjar",
    "pincode": "382460",
    "state": "Gujarat",
    "district": "Ahmedabad"
  },
  {
    "area": "Gyaspur",
    "pincode": "382405",
    "state": "Gujarat",
    "district": "Ahmedabad"
  },
  {
    "area": "Hansalpur",
    "pincode": "382150",
    "state": "Gujarat",
    "district": "Ahmedabad"
  },
  {
    "area": "Harniav",
    "pincode": "382435",
    "state": "Gujarat",
    "district": "Ahmedabad"
  },
  {
    "area": "Hathijan",
    "pincode": "382445",
    "state": "Gujarat",
    "district": "Ahmedabad"
  },
  {
    "area": "Hebatpur",
    "pincode": "382455",
    "state": "Gujarat",
    "district": "Ahmedabad"
  },
  {
    "area": "Hirapur",
    "pincode": "382435",
    "state": "Gujarat",
    "district": "Ahmedabad"
  },
  {
    "area": "Hirapura",
    "pincode": "382150",
    "state": "Gujarat",
    "district": "Ahmedabad"
  },
  {
    "area": "I E bapunagar",
    "pincode": "380024",
    "state": "Gujarat",
    "district": "Ahmedabad"
  },
  {
    "area": "I I m",
    "pincode": "380015",
    "state": "Gujarat",
    "district": "Ahmedabad"
  },
  {
    "area": "Iawa (vasna)",
    "pincode": "382170",
    "state": "Gujarat",
    "district": "Ahmedabad"
  },
  {
    "area": "Ingoli",
    "pincode": "382265",
    "state": "Gujarat",
    "district": "Ahmedabad"
  },
  {
    "area": "Isanpur",
    "pincode": "382443",
    "state": "Gujarat",
    "district": "Ahmedabad"
  },
  {
    "area": "Jagatpur",
    "pincode": "382470",
    "state": "Gujarat",
    "district": "Ahmedabad"
  },
  {
    "area": "Jakhada",
    "pincode": "382230",
    "state": "Gujarat",
    "district": "Ahmedabad"
  },
  {
    "area": "Jakwada",
    "pincode": "382150",
    "state": "Gujarat",
    "district": "Ahmedabad"
  },
  {
    "area": "Jalalpur Vajifa",
    "pincode": "387810",
    "state": "Gujarat",
    "district": "Ahmedabad"
  },
  {
    "area": "Jalampur",
    "pincode": "382150",
    "state": "Gujarat",
    "district": "Ahmedabad"
  },
  {
    "area": "Jalila",
    "pincode": "382255",
    "state": "Gujarat",
    "district": "Ahmedabad"
  },
  {
    "area": "Jalisana",
    "pincode": "382120",
    "state": "Gujarat",
    "district": "Ahmedabad"
  },
  {
    "area": "Jaliya",
    "pincode": "382460",
    "state": "Gujarat",
    "district": "Ahmedabad"
  },
  {
    "area": "Jamalpur",
    "pincode": "380001",
    "state": "Gujarat",
    "district": "Ahmedabad"
  },
  {
    "area": "Jamp",
    "pincode": "382110",
    "state": "Gujarat",
    "district": "Ahmedabad"
  },
  {
    "area": "Jantanagar",
    "pincode": "382449",
    "state": "Gujarat",
    "district": "Ahmedabad"
  },
  {
    "area": "Jawahar Chowk",
    "pincode": "380008",
    "state": "Gujarat",
    "district": "Ahmedabad"
  },
  {
    "area": "Jawaraj",
    "pincode": "382230",
    "state": "Gujarat",
    "district": "Ahmedabad"
  },
  {
    "area": "Jeska",
    "pincode": "382250",
    "state": "Gujarat",
    "district": "Ahmedabad"
  },
  {
    "area": "Jetalpur",
    "pincode": "382426",
    "state": "Gujarat",
    "district": "Ahmedabad"
  },
  {
    "area": "Jholapur",
    "pincode": "382170",
    "state": "Gujarat",
    "district": "Ahmedabad"
  },
  {
    "area": "Jivraj Park",
    "pincode": "380051",
    "state": "Gujarat",
    "district": "Ahmedabad"
  },
  {
    "area": "Jodhpur Char rasta",
    "pincode": "380015",
    "state": "Gujarat",
    "district": "Ahmedabad"
  },
  {
    "area": "Joshipura",
    "pincode": "382150",
    "state": "Gujarat",
    "district": "Ahmedabad"
  },
  {
    "area": "Juhapura",
    "pincode": "380055",
    "state": "Gujarat",
    "district": "Ahmedabad"
  },
  {
    "area": "Junapadhar",
    "pincode": "382150",
    "state": "Gujarat",
    "district": "Ahmedabad"
  },
  {
    "area": "Juval",
    "pincode": "382220",
    "state": "Gujarat",
    "district": "Ahmedabad"
  },
  {
    "area": "Juval Rupavati",
    "pincode": "382220",
    "state": "Gujarat",
    "district": "Ahmedabad"
  },
  {
    "area": "Kabir Chowk",
    "pincode": "380005",
    "state": "Gujarat",
    "district": "Ahmedabad"
  },
  {
    "area": "Kadipur",
    "pincode": "382463",
    "state": "Gujarat",
    "district": "Ahmedabad"
  },
  {
    "area": "Kadvasan",
    "pincode": "382130",
    "state": "Gujarat",
    "district": "Ahmedabad"
  },
  {
    "area": "Kalana",
    "pincode": "382170",
    "state": "Gujarat",
    "district": "Ahmedabad"
  },
  {
    "area": "Kali",
    "pincode": "382470",
    "state": "Gujarat",
    "district": "Ahmedabad"
  },
  {
    "area": "Kalupur Chakla",
    "pincode": "380001",
    "state": "Gujarat",
    "district": "Ahmedabad"
  },
  {
    "area": "Kalyangadh",
    "pincode": "382240",
    "state": "Gujarat",
    "district": "Ahmedabad"
  },
  {
    "area": "Kamiala",
    "pincode": "382465",
    "state": "Gujarat",
    "district": "Ahmedabad"
  },
  {
    "area": "Kamijala",
    "pincode": "382150",
    "state": "Gujarat",
    "district": "Ahmedabad"
  },
  {
    "area": "Kanbha",
    "pincode": "382430",
    "state": "Gujarat",
    "district": "Ahmedabad"
  },
  {
    "area": "Kaneti",
    "pincode": "382110",
    "state": "Gujarat",
    "district": "Ahmedabad"
  },
  {
    "area": "Kaniyel",
    "pincode": "382433",
    "state": "Gujarat",
    "district": "Ahmedabad"
  },
  {
    "area": "Kankravadi",
    "pincode": "382150",
    "state": "Gujarat",
    "district": "Ahmedabad"
  },
  {
    "area": "Kanz",
    "pincode": "382140",
    "state": "Gujarat",
    "district": "Ahmedabad"
  },
  {
    "area": "Karakthal",
    "pincode": "382150",
    "state": "Gujarat",
    "district": "Ahmedabad"
  },
  {
    "area": "Kasindra",
    "pincode": "382210",
    "state": "Gujarat",
    "district": "Ahmedabad"
  },
  {
    "area": "Kathwada",
    "pincode": "382430",
    "state": "Gujarat",
    "district": "Ahmedabad"
  },
  {
    "area": "Kathwada Maize product",
    "pincode": "382430",
    "state": "Gujarat",
    "district": "Ahmedabad"
  },
  {
    "area": "Katosan Road",
    "pincode": "382145",
    "state": "Gujarat",
    "district": "Ahmedabad"
  },
  {
    "area": "Kauka",
    "pincode": "382265",
    "state": "Gujarat",
    "district": "Ahmedabad"
  },
  {
    "area": "Kavitha",
    "pincode": "382260",
    "state": "Gujarat",
    "district": "Ahmedabad"
  },
  {
    "area": "Kelia vasna",
    "pincode": "387810",
    "state": "Gujarat",
    "district": "Ahmedabad"
  },
  {
    "area": "Kerala",
    "pincode": "382220",
    "state": "Gujarat",
    "district": "Ahmedabad"
  },
  {
    "area": "Keria",
    "pincode": "363610",
    "state": "Gujarat",
    "district": "Ahmedabad"
  },
  {
    "area": "Kesardi",
    "pincode": "382240",
    "state": "Gujarat",
    "district": "Ahmedabad"
  },
  {
    "area": "Khadia",
    "pincode": "380001",
    "state": "Gujarat",
    "district": "Ahmedabad"
  },
  {
    "area": "Khadol",
    "pincode": "382460",
    "state": "Gujarat",
    "district": "Ahmedabad"
  },
  {
    "area": "Khambhada",
    "pincode": "382450",
    "state": "Gujarat",
    "district": "Ahmedabad"
  },
  {
    "area": "Khamidana",
    "pincode": "382450",
    "state": "Gujarat",
    "district": "Ahmedabad"
  },
  {
    "area": "Khandachora Dhandhuka",
    "pincode": "382460",
    "state": "Gujarat",
    "district": "Ahmedabad"
  },
  {
    "area": "Khanpur",
    "pincode": "380001",
    "state": "Gujarat",
    "district": "Ahmedabad"
  },
  {
    "area": "Kharad",
    "pincode": "382460",
    "state": "Gujarat",
    "district": "Ahmedabad"
  },
  {
    "area": "Kharakuva Dholka",
    "pincode": "387810",
    "state": "Gujarat",
    "district": "Ahmedabad"
  },
  {
    "area": "Khas",
    "pincode": "382255",
    "state": "Gujarat",
    "district": "Ahmedabad"
  },
  {
    "area": "Khasta",
    "pincode": "382460",
    "state": "Gujarat",
    "district": "Ahmedabad"
  },
  {
    "area": "Khoda",
    "pincode": "382170",
    "state": "Gujarat",
    "district": "Ahmedabad"
  },
  {
    "area": "Khodiyar",
    "pincode": "382421",
    "state": "Gujarat",
    "district": "Ahmedabad"
  },
  {
    "area": "Khodiyarnagar",
    "pincode": "382350",
    "state": "Gujarat",
    "district": "Ahmedabad"
  },
  {
    "area": "Khokarnesh",
    "pincode": "363610",
    "state": "Gujarat",
    "district": "Ahmedabad"
  },
  {
    "area": "Khokhara Mehmadabad",
    "pincode": "380008",
    "state": "Gujarat",
    "district": "Ahmedabad"
  },
  {
    "area": "Khorajnanoda",
    "pincode": "382170",
    "state": "Gujarat",
    "district": "Ahmedabad"
  },
  {
    "area": "Khudad",
    "pincode": "382150",
    "state": "Gujarat",
    "district": "Ahmedabad"
  },
  {
    "area": "Khun",
    "pincode": "382455",
    "state": "Gujarat",
    "district": "Ahmedabad"
  },
  {
    "area": "Kocharia",
    "pincode": "382220",
    "state": "Gujarat",
    "district": "Ahmedabad"
  },
  {
    "area": "Kointia",
    "pincode": "382140",
    "state": "Gujarat",
    "district": "Ahmedabad"
  },
  {
    "area": "Kokta",
    "pincode": "382150",
    "state": "Gujarat",
    "district": "Ahmedabad"
  },
  {
    "area": "Kolat",
    "pincode": "382210",
    "state": "Gujarat",
    "district": "Ahmedabad"
  },
  {
    "area": "Koth",
    "pincode": "382240",
    "state": "Gujarat",
    "district": "Ahmedabad"
  },
  {
    "area": "Kothadia",
    "pincode": "382460",
    "state": "Gujarat",
    "district": "Ahmedabad"
  },
  {
    "area": "Krishnanagar",
    "pincode": "382345",
    "state": "Gujarat",
    "district": "Ahmedabad"
  },
  {
    "area": "Kubadthal",
    "pincode": "382430",
    "state": "Gujarat",
    "district": "Ahmedabad"
  },
  {
    "area": "Kubernagar",
    "pincode": "382340",
    "state": "Gujarat",
    "district": "Ahmedabad"
  },
  {
    "area": "Kubernagar B a",
    "pincode": "382340",
    "state": "Gujarat",
    "district": "Ahmedabad"
  },
  {
    "area": "Kuha",
    "pincode": "382433",
    "state": "Gujarat",
    "district": "Ahmedabad"
  },
  {
    "area": "Kujad",
    "pincode": "382430",
    "state": "Gujarat",
    "district": "Ahmedabad"
  },
  {
    "area": "Kukvav",
    "pincode": "382120",
    "state": "Gujarat",
    "district": "Ahmedabad"
  },
  {
    "area": "Kumarkhan",
    "pincode": "382150",
    "state": "Gujarat",
    "district": "Ahmedabad"
  },
  {
    "area": "Kundal",
    "pincode": "382110",
    "state": "Gujarat",
    "district": "Ahmedabad"
  },
  {
    "area": "Kundli",
    "pincode": "363610",
    "state": "Gujarat",
    "district": "Ahmedabad"
  },
  {
    "area": "Kunpur",
    "pincode": "382130",
    "state": "Gujarat",
    "district": "Ahmedabad"
  },
  {
    "area": "Kunvar",
    "pincode": "382110",
    "state": "Gujarat",
    "district": "Ahmedabad"
  },
  {
    "area": "L G hospital",
    "pincode": "380008",
    "state": "Gujarat",
    "district": "Ahmedabad"
  },
  {
    "area": "Lal Darwaja",
    "pincode": "380001",
    "state": "Gujarat",
    "district": "Ahmedabad"
  },
  {
    "area": "Lambha",
    "pincode": "382405",
    "state": "Gujarat",
    "district": "Ahmedabad"
  },
  {
    "area": "Lapkaman",
    "pincode": "380060",
    "state": "Gujarat",
    "district": "Ahmedabad"
  },
  {
    "area": "Limbadia",
    "pincode": "382330",
    "state": "Gujarat",
    "district": "Ahmedabad"
  },
  {
    "area": "Loliya",
    "pincode": "382465",
    "state": "Gujarat",
    "district": "Ahmedabad"
  },
  {
    "area": "Lothal Bhurkhi rs",
    "pincode": "382230",
    "state": "Gujarat",
    "district": "Ahmedabad"
  },
  {
    "area": "M D marg",
    "pincode": "380022",
    "state": "Gujarat",
    "district": "Ahmedabad"
  },
  {
    "area": "Madhupura Market",
    "pincode": "380004",
    "state": "Gujarat",
    "district": "Ahmedabad"
  },
  {
    "area": "Madrisana",
    "pincode": "382145",
    "state": "Gujarat",
    "district": "Ahmedabad"
  },
  {
    "area": "Mahijada",
    "pincode": "382425",
    "state": "Gujarat",
    "district": "Ahmedabad"
  },
  {
    "area": "Makarba",
    "pincode": "380051",
    "state": "Gujarat",
    "district": "Ahmedabad"
  },
  {
    "area": "Makhiav",
    "pincode": "382110",
    "state": "Gujarat",
    "district": "Ahmedabad"
  },
  {
    "area": "Mandal",
    "pincode": "382130",
    "state": "Gujarat",
    "district": "Ahmedabad"
  },
  {
    "area": "Manek Chowk",
    "pincode": "380001",
    "state": "Gujarat",
    "district": "Ahmedabad"
  },
  {
    "area": "Maninagar",
    "pincode": "380008",
    "state": "Gujarat",
    "district": "Ahmedabad"
  },
  {
    "area": "Manipur",
    "pincode": "382150",
    "state": "Gujarat",
    "district": "Ahmedabad"
  },
  {
    "area": "Mankol",
    "pincode": "382110",
    "state": "Gujarat",
    "district": "Ahmedabad"
  },
  {
    "area": "Marusana",
    "pincode": "382120",
    "state": "Gujarat",
    "district": "Ahmedabad"
  },
  {
    "area": "Matoda",
    "pincode": "382213",
    "state": "Gujarat",
    "district": "Ahmedabad"
  },
  {
    "area": "Medra",
    "pincode": "382330",
    "state": "Gujarat",
    "district": "Ahmedabad"
  },
  {
    "area": "Meghaningar",
    "pincode": "380016",
    "state": "Gujarat",
    "district": "Ahmedabad"
  },
  {
    "area": "Melaj",
    "pincode": "382150",
    "state": "Gujarat",
    "district": "Ahmedabad"
  },
  {
    "area": "Memnagar",
    "pincode": "380052",
    "state": "Gujarat",
    "district": "Ahmedabad"
  },
  {
    "area": "Mingalpur",
    "pincode": "382455",
    "state": "Gujarat",
    "district": "Ahmedabad"
  },
  {
    "area": "Miroli",
    "pincode": "382425",
    "state": "Gujarat",
    "district": "Ahmedabad"
  },
  {
    "area": "Mithapur",
    "pincode": "382230",
    "state": "Gujarat",
    "district": "Ahmedabad"
  },
  {
    "area": "Modasar",
    "pincode": "382220",
    "state": "Gujarat",
    "district": "Ahmedabad"
  },
  {
    "area": "Moraiya",
    "pincode": "382213",
    "state": "Gujarat",
    "district": "Ahmedabad"
  },
  {
    "area": "Mota Tradia",
    "pincode": "382460",
    "state": "Gujarat",
    "district": "Ahmedabad"
  },
  {
    "area": "Motera",
    "pincode": "380005",
    "state": "Gujarat",
    "district": "Ahmedabad"
  },
  {
    "area": "Moti kishol",
    "pincode": "382110",
    "state": "Gujarat",
    "district": "Ahmedabad"
  },
  {
    "area": "Moti Boru",
    "pincode": "382230",
    "state": "Gujarat",
    "district": "Ahmedabad"
  },
  {
    "area": "Moti Rantai",
    "pincode": "382145",
    "state": "Gujarat",
    "district": "Ahmedabad"
  },
  {
    "area": "Moti Vavdi",
    "pincode": "382255",
    "state": "Gujarat",
    "district": "Ahmedabad"
  },
  {
    "area": "Muktipur",
    "pincode": "382425",
    "state": "Gujarat",
    "district": "Ahmedabad"
  },
  {
    "area": "Municipal Corporation",
    "pincode": "380001",
    "state": "Gujarat",
    "district": "Ahmedabad"
  },
  {
    "area": "N C market",
    "pincode": "380002",
    "state": "Gujarat",
    "district": "Ahmedabad"
  },
  {
    "area": "N C mills",
    "pincode": "382345",
    "state": "Gujarat",
    "district": "Ahmedabad"
  },
  {
    "area": "Nadishala",
    "pincode": "382120",
    "state": "Gujarat",
    "district": "Ahmedabad"
  },
  {
    "area": "Nana Chiloda",
    "pincode": "382330",
    "state": "Gujarat",
    "district": "Ahmedabad"
  },
  {
    "area": "Nana Ubhada",
    "pincode": "382130",
    "state": "Gujarat",
    "district": "Ahmedabad"
  },
  {
    "area": "Nandej",
    "pincode": "382435",
    "state": "Gujarat",
    "district": "Ahmedabad"
  },
  {
    "area": "Nani Boru",
    "pincode": "382230",
    "state": "Gujarat",
    "district": "Ahmedabad"
  },
  {
    "area": "Nani Devti",
    "pincode": "382220",
    "state": "Gujarat",
    "district": "Ahmedabad"
  },
  {
    "area": "Nani Vavdi",
    "pincode": "363610",
    "state": "Gujarat",
    "district": "Ahmedabad"
  },
  {
    "area": "Nanodara",
    "pincode": "382220",
    "state": "Gujarat",
    "district": "Ahmedabad"
  },
  {
    "area": "Naranpura Vistar",
    "pincode": "380013",
    "state": "Gujarat",
    "district": "Ahmedabad"
  },
  {
    "area": "Narayannagar",
    "pincode": "380007",
    "state": "Gujarat",
    "district": "Ahmedabad"
  },
  {
    "area": "Naroda",
    "pincode": "382330",
    "state": "Gujarat",
    "district": "Ahmedabad"
  },
  {
    "area": "Naroda I e",
    "pincode": "382330",
    "state": "Gujarat",
    "district": "Ahmedabad"
  },
  {
    "area": "Naroda Road",
    "pincode": "382345",
    "state": "Gujarat",
    "district": "Ahmedabad"
  },
  {
    "area": "Naroda S a",
    "pincode": "382330",
    "state": "Gujarat",
    "district": "Ahmedabad"
  },
  {
    "area": "Narol",
    "pincode": "382405",
    "state": "Gujarat",
    "district": "Ahmedabad"
  },
  {
    "area": "Nava Vadaj",
    "pincode": "380013",
    "state": "Gujarat",
    "district": "Ahmedabad"
  },
  {
    "area": "Navagam",
    "pincode": "382130",
    "state": "Gujarat",
    "district": "Ahmedabad"
  },
  {
    "area": "Navapura",
    "pincode": "382210",
    "state": "Gujarat",
    "district": "Ahmedabad"
  },
  {
    "area": "Navda",
    "pincode": "382450",
    "state": "Gujarat",
    "district": "Ahmedabad"
  },
  {
    "area": "Navjivan",
    "pincode": "380014",
    "state": "Gujarat",
    "district": "Ahmedabad"
  },
  {
    "area": "Navrangpura",
    "pincode": "380009",
    "state": "Gujarat",
    "district": "Ahmedabad"
  },
  {
    "area": "Nayakpur",
    "pincode": "382130",
    "state": "Gujarat",
    "district": "Ahmedabad"
  },
  {
    "area": "Nedharad",
    "pincode": "382115",
    "state": "Gujarat",
    "district": "Ahmedabad"
  },
  {
    "area": "Nesda",
    "pincode": "387810",
    "state": "Gujarat",
    "district": "Ahmedabad"
  },
  {
    "area": "Nikol",
    "pincode": "382350",
    "state": "Gujarat",
    "district": "Ahmedabad"
  },
  {
    "area": "Nirnaynagar",
    "pincode": "382481",
    "state": "Gujarat",
    "district": "Ahmedabad"
  },
  {
    "area": "Noblenagar",
    "pincode": "382340",
    "state": "Gujarat",
    "district": "Ahmedabad"
  },
  {
    "area": "O N g c",
    "pincode": "380005",
    "state": "Gujarat",
    "district": "Ahmedabad"
  },
  {
    "area": "Ode",
    "pincode": "382427",
    "state": "Gujarat",
    "district": "Ahmedabad"
  },
  {
    "area": "Odhav",
    "pincode": "382120",
    "state": "Gujarat",
    "district": "Ahmedabad"
  },
  {
    "area": "Odhav Industrial estate",
    "pincode": "382415",
    "state": "Gujarat",
    "district": "Ahmedabad"
  },
  {
    "area": "Ogan",
    "pincode": "382150",
    "state": "Gujarat",
    "district": "Ahmedabad"
  },
  {
    "area": "Ognaj",
    "pincode": "380060",
    "state": "Gujarat",
    "district": "Ahmedabad"
  },
  {
    "area": "Otaria",
    "pincode": "382463",
    "state": "Gujarat",
    "district": "Ahmedabad"
  },
  {
    "area": "Otaria Sarvodaya ashram",
    "pincode": "382463",
    "state": "Gujarat",
    "district": "Ahmedabad"
  },
  {
    "area": "Padana",
    "pincode": "382460",
    "state": "Gujarat",
    "district": "Ahmedabad"
  },
  {
    "area": "Paldi",
    "pincode": "380007",
    "state": "Gujarat",
    "district": "Ahmedabad"
  },
  {
    "area": "Paldi Kankaj",
    "pincode": "382425",
    "state": "Gujarat",
    "district": "Ahmedabad"
  },
  {
    "area": "Panar",
    "pincode": "382140",
    "state": "Gujarat",
    "district": "Ahmedabad"
  },
  {
    "area": "Panchham",
    "pincode": "382465",
    "state": "Gujarat",
    "district": "Ahmedabad"
  },
  {
    "area": "Panchhi",
    "pincode": "382455",
    "state": "Gujarat",
    "district": "Ahmedabad"
  },
  {
    "area": "Parabadi",
    "pincode": "382250",
    "state": "Gujarat",
    "district": "Ahmedabad"
  },
  {
    "area": "Pardhol",
    "pincode": "382330",
    "state": "Gujarat",
    "district": "Ahmedabad"
  },
  {
    "area": "Pasunj",
    "pincode": "382430",
    "state": "Gujarat",
    "district": "Ahmedabad"
  },
  {
    "area": "Pimpan",
    "pincode": "382110",
    "state": "Gujarat",
    "district": "Ahmedabad"
  },
  {
    "area": "Pipli",
    "pincode": "382465",
    "state": "Gujarat",
    "district": "Ahmedabad"
  },
  {
    "area": "Pirana",
    "pincode": "382425",
    "state": "Gujarat",
    "district": "Ahmedabad"
  },
  {
    "area": "Pisawada",
    "pincode": "382265",
    "state": "Gujarat",
    "district": "Ahmedabad"
  },
  {
    "area": "Polarpur",
    "pincode": "382250",
    "state": "Gujarat",
    "district": "Ahmedabad"
  },
  {
    "area": "Polytechnic",
    "pincode": "380015",
    "state": "Gujarat",
    "district": "Ahmedabad"
  },
  {
    "area": "Post Bureau extn counter",
    "pincode": "380004",
    "state": "Gujarat",
    "district": "Ahmedabad"
  },
  {
    "area": "Public Office",
    "pincode": "380016",
    "state": "Gujarat",
    "district": "Ahmedabad"
  },
  {
    "area": "Rahemalpur",
    "pincode": "382150",
    "state": "Gujarat",
    "district": "Ahmedabad"
  },
  {
    "area": "Raikhad",
    "pincode": "380001",
    "state": "Gujarat",
    "district": "Ahmedabad"
  },
  {
    "area": "Railway Colony",
    "pincode": "380019",
    "state": "Gujarat",
    "district": "Ahmedabad"
  },
  {
    "area": "Railwaypura",
    "pincode": "380002",
    "state": "Gujarat",
    "district": "Ahmedabad"
  },
  {
    "area": "Raipur",
    "pincode": "380001",
    "state": "Gujarat",
    "district": "Ahmedabad"
  },
  {
    "area": "Rajoda",
    "pincode": "382220",
    "state": "Gujarat",
    "district": "Ahmedabad"
  },
  {
    "area": "Rajpur Gomtipur",
    "pincode": "380021",
    "state": "Gujarat",
    "district": "Ahmedabad"
  },
  {
    "area": "Rajpura",
    "pincode": "363610",
    "state": "Gujarat",
    "district": "Ahmedabad"
  },
  {
    "area": "Rakhial",
    "pincode": "380023",
    "state": "Gujarat",
    "district": "Ahmedabad"
  },
  {
    "area": "Rakhial Udyog vistar",
    "pincode": "380023",
    "state": "Gujarat",
    "district": "Ahmedabad"
  },
  {
    "area": "Rakhiana",
    "pincode": "382130",
    "state": "Gujarat",
    "district": "Ahmedabad"
  },
  {
    "area": "Ramol",
    "pincode": "382449",
    "state": "Gujarat",
    "district": "Ahmedabad"
  },
  {
    "area": "Rampur",
    "pincode": "387810",
    "state": "Gujarat",
    "district": "Ahmedabad"
  },
  {
    "area": "Rampura",
    "pincode": "382140",
    "state": "Gujarat",
    "district": "Ahmedabad"
  },
  {
    "area": "Ranesar",
    "pincode": "382220",
    "state": "Gujarat",
    "district": "Ahmedabad"
  },
  {
    "area": "Rangpur",
    "pincode": "382150",
    "state": "Gujarat",
    "district": "Ahmedabad"
  },
  {
    "area": "Ranip",
    "pincode": "382480",
    "state": "Gujarat",
    "district": "Ahmedabad"
  },
  {
    "area": "Ranoda",
    "pincode": "387810",
    "state": "Gujarat",
    "district": "Ahmedabad"
  },
  {
    "area": "Ranodra",
    "pincode": "382433",
    "state": "Gujarat",
    "district": "Ahmedabad"
  },
  {
    "area": "Ranpur",
    "pincode": "363610",
    "state": "Gujarat",
    "district": "Ahmedabad"
  },
  {
    "area": "Rasam",
    "pincode": "382220",
    "state": "Gujarat",
    "district": "Ahmedabad"
  },
  {
    "area": "Rayka",
    "pincode": "382460",
    "state": "Gujarat",
    "district": "Ahmedabad"
  },
  {
    "area": "Refda",
    "pincode": "382255",
    "state": "Gujarat",
    "district": "Ahmedabad"
  },
  {
    "area": "Rethal",
    "pincode": "382110",
    "state": "Gujarat",
    "district": "Ahmedabad"
  },
  {
    "area": "Revdibazar",
    "pincode": "380002",
    "state": "Gujarat",
    "district": "Ahmedabad"
  },
  {
    "area": "Ribadi",
    "pincode": "382130",
    "state": "Gujarat",
    "district": "Ahmedabad"
  },
  {
    "area": "Rohika",
    "pincode": "382230",
    "state": "Gujarat",
    "district": "Ahmedabad"
  },
  {
    "area": "Rojid",
    "pincode": "382450",
    "state": "Gujarat",
    "district": "Ahmedabad"
  },
  {
    "area": "Rojka",
    "pincode": "382460",
    "state": "Gujarat",
    "district": "Ahmedabad"
  },
  {
    "area": "Rudatal",
    "pincode": "382120",
    "state": "Gujarat",
    "district": "Ahmedabad"
  },
  {
    "area": "Rupal",
    "pincode": "382220",
    "state": "Gujarat",
    "district": "Ahmedabad"
  },
  {
    "area": "Rupgadh",
    "pincode": "382240",
    "state": "Gujarat",
    "district": "Ahmedabad"
  },
  {
    "area": "S A c",
    "pincode": "380015",
    "state": "Gujarat",
    "district": "Ahmedabad"
  },
  {
    "area": "S A mills",
    "pincode": "380008",
    "state": "Gujarat",
    "district": "Ahmedabad"
  },
  {
    "area": "Sabarmati",
    "pincode": "380005",
    "state": "Gujarat",
    "district": "Ahmedabad"
  },
  {
    "area": "Sachana",
    "pincode": "382150",
    "state": "Gujarat",
    "district": "Ahmedabad"
  },
  {
    "area": "Sadatpura",
    "pincode": "382120",
    "state": "Gujarat",
    "district": "Ahmedabad"
  },
  {
    "area": "Sahij",
    "pincode": "387810",
    "state": "Gujarat",
    "district": "Ahmedabad"
  },
  {
    "area": "Saijpur",
    "pincode": "382405",
    "state": "Gujarat",
    "district": "Ahmedabad"
  },
  {
    "area": "Saijpur Bogha",
    "pincode": "382345",
    "state": "Gujarat",
    "district": "Ahmedabad"
  },
  {
    "area": "Saiwada",
    "pincode": "387810",
    "state": "Gujarat",
    "district": "Ahmedabad"
  },
  {
    "area": "Salajada",
    "pincode": "382220",
    "state": "Gujarat",
    "district": "Ahmedabad"
  },
  {
    "area": "Salangpur - hanuman",
    "pincode": "382451",
    "state": "Gujarat",
    "district": "Ahmedabad"
  },
  {
    "area": "Salasar",
    "pincode": "363610",
    "state": "Gujarat",
    "district": "Ahmedabad"
  },
  {
    "area": "Sanand",
    "pincode": "382110",
    "state": "Gujarat",
    "district": "Ahmedabad"
  },
  {
    "area": "Sanathal",
    "pincode": "382210",
    "state": "Gujarat",
    "district": "Ahmedabad"
  },
  {
    "area": "Sandhida",
    "pincode": "382455",
    "state": "Gujarat",
    "district": "Ahmedabad"
  },
  {
    "area": "Sangasar",
    "pincode": "382463",
    "state": "Gujarat",
    "district": "Ahmedabad"
  },
  {
    "area": "Sangpura",
    "pincode": "382120",
    "state": "Gujarat",
    "district": "Ahmedabad"
  },
  {
    "area": "Sankod",
    "pincode": "382220",
    "state": "Gujarat",
    "district": "Ahmedabad"
  },
  {
    "area": "Sarandi",
    "pincode": "387810",
    "state": "Gujarat",
    "district": "Ahmedabad"
  },
  {
    "area": "Saraspur",
    "pincode": "380018",
    "state": "Gujarat",
    "district": "Ahmedabad"
  },
  {
    "area": "Sardarnagar",
    "pincode": "382475",
    "state": "Gujarat",
    "district": "Ahmedabad"
  },
  {
    "area": "Sargwala",
    "pincode": "382230",
    "state": "Gujarat",
    "district": "Ahmedabad"
  },
  {
    "area": "Sari",
    "pincode": "382220",
    "state": "Gujarat",
    "district": "Ahmedabad"
  },
  {
    "area": "Sarkhej",
    "pincode": "382210",
    "state": "Gujarat",
    "district": "Ahmedabad"
  },
  {
    "area": "Sarkhej Road",
    "pincode": "380007",
    "state": "Gujarat",
    "district": "Ahmedabad"
  },
  {
    "area": "Saroda",
    "pincode": "382260",
    "state": "Gujarat",
    "district": "Ahmedabad"
  },
  {
    "area": "Sarsavadi",
    "pincode": "382150",
    "state": "Gujarat",
    "district": "Ahmedabad"
  },
  {
    "area": "Sathal",
    "pincode": "387810",
    "state": "Gujarat",
    "district": "Ahmedabad"
  },
  {
    "area": "Shah Alam roza",
    "pincode": "380028",
    "state": "Gujarat",
    "district": "Ahmedabad"
  },
  {
    "area": "Shahibag",
    "pincode": "380004",
    "state": "Gujarat",
    "district": "Ahmedabad"
  },
  {
    "area": "Shahpur",
    "pincode": "382150",
    "state": "Gujarat",
    "district": "Ahmedabad"
  },
  {
    "area": "Shahwadi",
    "pincode": "382405",
    "state": "Gujarat",
    "district": "Ahmedabad"
  },
  {
    "area": "Shardanagar",
    "pincode": "380007",
    "state": "Gujarat",
    "district": "Ahmedabad"
  },
  {
    "area": "Shastrinagar",
    "pincode": "380013",
    "state": "Gujarat",
    "district": "Ahmedabad"
  },
  {
    "area": "Shela",
    "pincode": "380058",
    "state": "Gujarat",
    "district": "Ahmedabad"
  },
  {
    "area": "Sher",
    "pincode": "382130",
    "state": "Gujarat",
    "district": "Ahmedabad"
  },
  {
    "area": "Sherpura",
    "pincode": "387810",
    "state": "Gujarat",
    "district": "Ahmedabad"
  },
  {
    "area": "Shilaj",
    "pincode": "380058",
    "state": "Gujarat",
    "district": "Ahmedabad"
  },
  {
    "area": "Shivpura",
    "pincode": "382140",
    "state": "Gujarat",
    "district": "Ahmedabad"
  },
  {
    "area": "Shiyal",
    "pincode": "382230",
    "state": "Gujarat",
    "district": "Ahmedabad"
  },
  {
    "area": "Siawada",
    "pincode": "382170",
    "state": "Gujarat",
    "district": "Ahmedabad"
  },
  {
    "area": "Sihor",
    "pincode": "382140",
    "state": "Gujarat",
    "district": "Ahmedabad"
  },
  {
    "area": "Simej",
    "pincode": "382265",
    "state": "Gujarat",
    "district": "Ahmedabad"
  },
  {
    "area": "Sinaj",
    "pincode": "382120",
    "state": "Gujarat",
    "district": "Ahmedabad"
  },
  {
    "area": "Sindharej",
    "pincode": "387810",
    "state": "Gujarat",
    "district": "Ahmedabad"
  },
  {
    "area": "Sitapur",
    "pincode": "382130",
    "state": "Gujarat",
    "district": "Ahmedabad"
  },
  {
    "area": "Sobhasan",
    "pincode": "382145",
    "state": "Gujarat",
    "district": "Ahmedabad"
  },
  {
    "area": "Sodhi",
    "pincode": "382463",
    "state": "Gujarat",
    "district": "Ahmedabad"
  },
  {
    "area": "Sola",
    "pincode": "380060",
    "state": "Gujarat",
    "district": "Ahmedabad"
  },
  {
    "area": "Sola H b c",
    "pincode": "380013",
    "state": "Gujarat",
    "district": "Ahmedabad"
  },
  {
    "area": "Solgam",
    "pincode": "382130",
    "state": "Gujarat",
    "district": "Ahmedabad"
  },
  {
    "area": "Stadium Marg",
    "pincode": "380013",
    "state": "Gujarat",
    "district": "Ahmedabad"
  },
  {
    "area": "Sub Foreign",
    "pincode": "380004",
    "state": "Gujarat",
    "district": "Ahmedabad"
  },
  {
    "area": "Sukhrampura",
    "pincode": "380023",
    "state": "Gujarat",
    "district": "Ahmedabad"
  },
  {
    "area": "Sunderiana",
    "pincode": "382255",
    "state": "Gujarat",
    "district": "Ahmedabad"
  },
  {
    "area": "Sunvala",
    "pincode": "382145",
    "state": "Gujarat",
    "district": "Ahmedabad"
  },
  {
    "area": "T B nagar",
    "pincode": "382350",
    "state": "Gujarat",
    "district": "Ahmedabad"
  },
  {
    "area": "Tagadi",
    "pincode": "382250",
    "state": "Gujarat",
    "district": "Ahmedabad"
  },
  {
    "area": "Telav",
    "pincode": "382210",
    "state": "Gujarat",
    "district": "Ahmedabad"
  },
  {
    "area": "Telavi",
    "pincode": "382145",
    "state": "Gujarat",
    "district": "Ahmedabad"
  },
  {
    "area": "Thaltej",
    "pincode": "380059",
    "state": "Gujarat",
    "district": "Ahmedabad"
  },
  {
    "area": "Thaltej Road",
    "pincode": "380054",
    "state": "Gujarat",
    "district": "Ahmedabad"
  },
  {
    "area": "Thori Mubarak",
    "pincode": "382150",
    "state": "Gujarat",
    "district": "Ahmedabad"
  },
  {
    "area": "Thori Thumbha",
    "pincode": "382150",
    "state": "Gujarat",
    "district": "Ahmedabad"
  },
  {
    "area": "Thuleta",
    "pincode": "382150",
    "state": "Gujarat",
    "district": "Ahmedabad"
  },
  {
    "area": "Timba",
    "pincode": "382425",
    "state": "Gujarat",
    "district": "Ahmedabad"
  },
  {
    "area": "Tragad",
    "pincode": "382470",
    "state": "Gujarat",
    "district": "Ahmedabad"
  },
  {
    "area": "Transad",
    "pincode": "387810",
    "state": "Gujarat",
    "district": "Ahmedabad"
  },
  {
    "area": "Trent",
    "pincode": "382150",
    "state": "Gujarat",
    "district": "Ahmedabad"
  },
  {
    "area": "Ughroj",
    "pincode": "382120",
    "state": "Gujarat",
    "district": "Ahmedabad"
  },
  {
    "area": "Ukardi",
    "pincode": "382140",
    "state": "Gujarat",
    "district": "Ahmedabad"
  },
  {
    "area": "Ukhlod",
    "pincode": "382150",
    "state": "Gujarat",
    "district": "Ahmedabad"
  },
  {
    "area": "Umrela",
    "pincode": "363610",
    "state": "Gujarat",
    "district": "Ahmedabad"
  },
  {
    "area": "Unchadi",
    "pincode": "382250",
    "state": "Gujarat",
    "district": "Ahmedabad"
  },
  {
    "area": "Undrel",
    "pincode": "382433",
    "state": "Gujarat",
    "district": "Ahmedabad"
  },
  {
    "area": "Upardal",
    "pincode": "382110",
    "state": "Gujarat",
    "district": "Ahmedabad"
  },
  {
    "area": "Utelia",
    "pincode": "382230",
    "state": "Gujarat",
    "district": "Ahmedabad"
  },
  {
    "area": "Vadaj",
    "pincode": "380013",
    "state": "Gujarat",
    "district": "Ahmedabad"
  },
  {
    "area": "Vadgas",
    "pincode": "382150",
    "state": "Gujarat",
    "district": "Ahmedabad"
  },
  {
    "area": "Vadhela",
    "pincode": "382450",
    "state": "Gujarat",
    "district": "Ahmedabad"
  },
  {
    "area": "Vadod",
    "pincode": "382433",
    "state": "Gujarat",
    "district": "Ahmedabad"
  },
  {
    "area": "Vagad",
    "pincode": "363610",
    "state": "Gujarat",
    "district": "Ahmedabad"
  },
  {
    "area": "Valdhera",
    "pincode": "387810",
    "state": "Gujarat",
    "district": "Ahmedabad"
  },
  {
    "area": "Valhia",
    "pincode": "382450",
    "state": "Gujarat",
    "district": "Ahmedabad"
  },
  {
    "area": "Valinda",
    "pincode": "382463",
    "state": "Gujarat",
    "district": "Ahmedabad"
  },
  {
    "area": "Vanch",
    "pincode": "382449",
    "state": "Gujarat",
    "district": "Ahmedabad"
  },
  {
    "area": "Vani",
    "pincode": "382150",
    "state": "Gujarat",
    "district": "Ahmedabad"
  },
  {
    "area": "Vanpardi",
    "pincode": "382130",
    "state": "Gujarat",
    "district": "Ahmedabad"
  },
  {
    "area": "Vansva",
    "pincode": "382150",
    "state": "Gujarat",
    "district": "Ahmedabad"
  },
  {
    "area": "Vanthal",
    "pincode": "382150",
    "state": "Gujarat",
    "district": "Ahmedabad"
  },
  {
    "area": "Varmor",
    "pincode": "382130",
    "state": "Gujarat",
    "district": "Ahmedabad"
  },
  {
    "area": "Varna",
    "pincode": "382265",
    "state": "Gujarat",
    "district": "Ahmedabad"
  },
  {
    "area": "Vasai",
    "pincode": "382425",
    "state": "Gujarat",
    "district": "Ahmedabad"
  },
  {
    "area": "Vasisthnagar",
    "pincode": "380008",
    "state": "Gujarat",
    "district": "Ahmedabad"
  },
  {
    "area": "Vasna",
    "pincode": "382460",
    "state": "Gujarat",
    "district": "Ahmedabad"
  },
  {
    "area": "Vasna (iawa)",
    "pincode": "382170",
    "state": "Gujarat",
    "district": "Ahmedabad"
  },
  {
    "area": "Vasna chacharvadi",
    "pincode": "382213",
    "state": "Gujarat",
    "district": "Ahmedabad"
  },
  {
    "area": "Vastral",
    "pincode": "382418",
    "state": "Gujarat",
    "district": "Ahmedabad"
  },
  {
    "area": "Vataman",
    "pincode": "382265",
    "state": "Gujarat",
    "district": "Ahmedabad"
  },
  {
    "area": "Vatva",
    "pincode": "382440",
    "state": "Gujarat",
    "district": "Ahmedabad"
  },
  {
    "area": "Vatva Industrial estate",
    "pincode": "382445",
    "state": "Gujarat",
    "district": "Ahmedabad"
  },
  {
    "area": "Vautha",
    "pincode": "387810",
    "state": "Gujarat",
    "district": "Ahmedabad"
  },
  {
    "area": "Vehlal",
    "pincode": "382330",
    "state": "Gujarat",
    "district": "Ahmedabad"
  },
  {
    "area": "Vejalka",
    "pincode": "382230",
    "state": "Gujarat",
    "district": "Ahmedabad"
  },
  {
    "area": "Vejalpur",
    "pincode": "380051",
    "state": "Gujarat",
    "district": "Ahmedabad"
  },
  {
    "area": "Vekaria",
    "pincode": "382110",
    "state": "Gujarat",
    "district": "Ahmedabad"
  },
  {
    "area": "Vinchhan",
    "pincode": "382120",
    "state": "Gujarat",
    "district": "Ahmedabad"
  },
  {
    "area": "Vinchhiya",
    "pincode": "382110",
    "state": "Gujarat",
    "district": "Ahmedabad"
  },
  {
    "area": "Vinzol",
    "pincode": "382445",
    "state": "Gujarat",
    "district": "Ahmedabad"
  },
  {
    "area": "Vinzuvada",
    "pincode": "382130",
    "state": "Gujarat",
    "district": "Ahmedabad"
  },
  {
    "area": "Viramgam",
    "pincode": "382150",
    "state": "Gujarat",
    "district": "Ahmedabad"
  },
  {
    "area": "Virdi",
    "pincode": "382265",
    "state": "Gujarat",
    "district": "Ahmedabad"
  },
  {
    "area": "Virochannagar",
    "pincode": "382170",
    "state": "Gujarat",
    "district": "Ahmedabad"
  },
  {
    "area": "Vishalpur",
    "pincode": "382210",
    "state": "Gujarat",
    "district": "Ahmedabad"
  },
  {
    "area": "Vithlpura",
    "pincode": "382120",
    "state": "Gujarat",
    "district": "Ahmedabad"
  },
  {
    "area": "Zanu",
    "pincode": "382430",
    "state": "Gujarat",
    "district": "Ahmedabad"
  },
  {
    "area": "Zanzarka",
    "pincode": "382460",
    "state": "Gujarat",
    "district": "Ahmedabad"
  },
  {
    "area": "Zanzarva",
    "pincode": "382120",
    "state": "Gujarat",
    "district": "Ahmedabad"
  },
  {
    "area": "Zezra",
    "pincode": "382150",
    "state": "Gujarat",
    "district": "Ahmedabad"
  },
  {
    "area": "Zinzar",
    "pincode": "382250",
    "state": "Gujarat",
    "district": "Ahmedabad"
  }
]